QIANFAN-33              
1 61566U 24185Q   25210.18898820  .00000343  00000+0  23869-3 0  9998
2 61566  88.9791  94.0518 0008584  42.3855 317.7983 13.96404991 50107
QIANFAN-34              
1 61567U 24185R   25209.85776351  .00000268  00000+0  16642-3 0  9992
2 61567  88.9769  93.8331 0007503  52.7277 307.4586 14.02154168 50208
QIANFAN-35              
1 61568U 24185S   25210.52608683  .00000610  00000+0  24165-3 0  9991
2 61568  88.9791  92.8875 0008037  30.1013 330.0642 14.27652729 50744
QIANFAN-36              
1 61569U 24185T   25210.18533694  .00000082  00000+0  10006-3 0  9995
2 61569  88.9782  95.2872 0008177  78.4634 281.7438 13.55543709 49478
QIANFAN-37              
1 62238U 24232B   25210.19465363  .00000048  00000+0  55665-4 0  9993
2 62238  88.9927  55.1433 0002483  97.3191 262.8242 13.50964594 80734
QIANFAN-38              
1 62239U 24232C   25210.14535367  .00000036  00000+0  37749-4 0  9991
2 62239  88.9933  55.0548 0013018 225.1237 134.8858 13.50953170 80780
QIANFAN-39              
1 62240U 24232D   25209.59192946  .00000134  00000+0  50691-4 0  9992
2 62240  88.9931  53.0216 0016698 160.0164 200.1687 14.25227813 81850
QIANFAN-40              
1 62241U 24232E   25210.54855796  .00000027  00000+0  24066-4 0  9997
2 62241  88.9960  54.5600 0011917 232.3473 127.6598 13.50959348 81206
